TEVEL2-2                
1 63219U 25052K   26068.64848259  .00020339  00000+0  69428-3 0  9991
2 63219  97.3987 324.7700 0004693 105.7930 254.3828 15.30343745 54855
STARLINK-35160          
1 65911U 25225B   26068.55566598  .00029185  00000+0  99402-3 0  9990
2 65911  53.1576 166.5841 0001148  63.5890 296.5228 15.30187032 24388
